STARLINK-4630           
1 53680U 22105AJ  22253.50001157  .00099335  00000+0  81225-3 0  9994
2 53680  97.6572 131.4016 0001513 115.1117 331.8432 15.70245199  1900
STARLINK-4424           
1 53681U 22105AK  22253.16667824  .00050327  00000+0  41471-3 0  9993
2 53681  97.6567 131.0344 0001969 131.6322 230.4490 15.70230086  1841
STARLINK-4438           
1 53682U 22105AL  22253.50001157  .00090078  00000+0  73827-3 0  9990
2 53682  97.6571 131.4020 0001981 111.3601 336.7907 15.70218296  1900
STARLINK-4625           
1 53683U 22105AM  22253.16667824  .00052634  00000+0  43393-3 0  9993
2 53683  97.6591 131.0347 0001606 128.7495 234.4926 15.70209858  1840
STARLINK-4624           
1 53684U 22105AN  22253.16667824 -.00000922  00000+0 -65214-5 0  9997
2 53684  97.6557 131.0636 0001711 122.0115 332.6431 15.70277954  1852
STARLINK-4626           
1 53685U 22105AP  22253.16667824 -.00036466  00000+0 -30077-3 0  9997
2 53685  97.6580 131.0354 0001490 128.5167 235.9080 15.70307128  1849
STARLINK-4467           
1 53686U 22105AQ  22253.16667824  .00047872  00000+0  39546-3 0  9999
2 53686  97.6584 131.0373 0001681 111.5549 254.6642 15.70181136  1855
STARLINK-4569           
1 53687U 22105AR  22252.91667824  .00000055  00000+0  15371-5 0  9996
2 53687  97.6573 130.7624 0001237 138.6689 254.4319 15.70354860  1306
STARLINK-4571           
1 53688U 22105AS  22253.16667824  .00047422  00000+0  39104-3 0  9992
2 53688  97.6580 131.0381 0001694 117.0021 250.3816 15.70226361  1858
STARLINK-4562           
1 53689U 22105AT  22253.16667824  .00050959  00000+0  41988-3 0  9995
2 53689  97.6587 131.0368 0001652 117.8044 248.9739 15.70230355  1842
STARLINK-4570           
1 53690U 22105AU  22253.50001157  .00046055  00000+0  37937-3 0  9997
2 53690  97.6573 131.4049 0001675 115.0244 336.6302 15.70257610  1907
STARLINK-4560           
1 53691U 22105AV  22253.50001157 -.00010559  00000+0 -86149-4 0  9990
2 53691  97.6567 131.4031 0001416 112.7652 338.3181 15.70279315  1902
STARLINK-4572           
1 53692U 22105AW  22253.16667824  .00044116  00000+0  36341-3 0  9994
2 53692  97.6601 131.0395 0001916 125.1669 244.0077 15.70264957  1859
STARLINK-4566           
1 53693U 22105AX  22253.50001157  .00064932  00000+0  53330-3 0  9999
2 53693  97.6571 131.4045 0001290 119.5565 333.3615 15.70254623  1904
FALCON 9 DEB            
1 53694U 22105AY  22253.17896494  .00153025  10577-4  56418-3 0  9996
2 53694  97.6739 131.1971 0009542 228.9726 131.0721 15.88169059  1580
FALCON 9 DEB            
1 53695U 22105AZ  22253.17671152  .00169946  12555-4  61368-3 0  9996
2 53695  97.6721 131.1976 0007733 214.4445 145.6326 15.88606670  1582
FALCON 9 DEB            
1 53696U 22105BA  22253.17000472  .00183528  14439-4  62059-3 0  9991
2 53696  97.6693 131.2010 0012769 209.3715 150.6841 15.89823955  1585
FALCON 9 DEB            
1 53697U 22105BB  22253.16810011  .00185014  14676-4  61762-3 0  9994
2 53697  97.6683 131.2019 0011713 196.6950 163.3938 15.90101228  1583
YAOGAN-33 02            
1 53698U 22106A   22253.49042869  .00000087  00000+0  26315-4 0  9993
2 53698  98.1878 259.5488 0005805 220.9663 139.1105 14.62863732  1105
CZ-4C R/B               
1 53699U 22106B   22253.21311430  .00001966  00000+0  16648-3 0  9991
2 53699  98.2016 259.6427 0145206  27.9220 332.9679 14.91468194  1079
CENTISPACE-1 S3         
1 53757U 22108A   22253.53484356  .00000340  00000+0  11280-3 0  9993
2 53757  53.5343 328.4013 0008662 290.4138  69.5880 14.58241067   646
CENTISPACE-1 S4         
1 53758U 22108B   22253.53647556  .00000645  00000+0  18023-3 0  9997
2 53758  53.5316 328.4085 0008454 274.0134  85.9847 14.57704218   645
KZ-1A R/B               
1 53759U 22108C   22253.59152451  .00426083  98707-5  74385-3 0  9997
2 53759  53.5626 325.9753 0399281  92.8719 271.8019 15.31514441   681
YAOGAN-35 05A           
1 53760U 22109A   22253.36691574  .00011138  00000+0  46218-3 0  9997
2 53760  34.9980 359.1974 0007956 294.5891 123.4490 15.23046178   649
YAOGAN-35 05B           
1 53761U 22109B   22253.36476576  .00011664  00000+0  47283-3 0  9998
2 53761  34.9972 359.1850 0008918 318.0037  99.4200 15.23817583   600
CZ-2D DEB               
1 53762U 22109C   22253.36277867  .00018150  00000+0  73858-3 0  9995
2 53762  34.9988 359.2066 0009379 310.4932  92.5923 15.23616905   601
YAOGAN-35 05C           
1 53763U 22109D   22253.43458909 -.00013987  00000+0 -57310-3 0  9992
2 53763  35.0011 358.7585 0009818 286.6248 149.1434 15.23366876   619
CZ-2D R/B               
1 53764U 22109E   22253.36370692  .00016798  00000+0  69014-3 0  9992
2 53764  34.9987 359.2120 0009020 300.9393 102.6964 15.23309469   603
EUTELSAT KONNECT VHTS   
1 53765U 22110A   22253.38309063 -.00000262  00000+0  00000+0 0  9997
2 53765   3.3847 145.0239 8158068 175.7844  12.6420  1.22473754    32
ARIANE 5 R/B            
1 53766U 22110B   22253.31064993 -.00000238  00000+0  00000+0 0  9994
2 53766   3.1410 150.2781 8159567 170.2436   7.6256  1.26347667    37
1998-067UE              
1 53767U 98067UE  22252.96266299  .00025061  00000+0  42957-3 0  9993
2 53767  51.6408 276.5774 0003498 287.2553  72.8054 15.51040575   568
1998-067UF              
1 53768U 98067UF  22252.96298972  .00026370  00000+0  45377-3 0  9990
2 53768  51.6407 276.5799 0001451 310.6557  49.4306 15.50905035   578
1998-067UG              
1 53769U 98067UG  22252.96290273  .00033781  00000+0  57715-3 0  9990
2 53769  51.6408 276.5790 0001464 309.0996  50.9863 15.50973521   574
1998-067UH              
1 53770U 98067UH  22252.96259623  .00047589  00000+0  80358-3 0  9996
2 53770  51.6407 276.5781 0003305 286.4967  73.5659 15.51141058   574
1998-067UJ              
1 53771U 98067UJ  22252.96250189  .00047689  00000+0  80385-3 0  9996
2 53771  51.6407 276.5761 0003415 287.5866  72.4750 15.51189357   568
1998-067UK              
1 53772U 98067UK  22249.38888889 -.00000459  00000+0  00000+0 0  9990
2 53772  51.6415 294.3126 0001846 293.5129 259.5038 15.50892598    10
NOAA 1 [-]              
1 04793U 70106A   22252.82140738 -.00000026  00000+0  11080-3 0  9994
2 04793 101.5495 314.4831 0031913 157.5960 320.2952 12.54007240368166
NOAA 2 (ITOS-D) [-]     
1 06235U 72082A   22252.92430196 -.00000033  00000+0  85778-4 0  9997
2 06235 101.9614 235.7060 0003698 276.6761 138.9877 12.53151159282552
NOAA 3 [-]              
1 06920U 73086A   22252.91164965 -.00000029  00000+0  12343-3 0  9992
2 06920 102.2153 234.7184 0006581 131.8190 283.5861 12.40348237211264
NOAA 4 [-]              
1 07529U 74089A   22252.90292836 -.00000031  00000+0  96351-4 0  9995
2 07529 101.9218 232.8100 0008772 304.9884 109.9467 12.53159970187377
NOAA 5 [-]              
1 09057U 76077A   22253.43661361 -.00000041  00000+0  30183-4 0  9996
2 09057 102.1070 220.5438 0010031 344.9871 134.8903 12.37774111 84485
TIROS N [-]             
1 11060U 78096A   22253.13806185  .00000089  00000+0  63807-4 0  9998
2 11060  98.6280 304.6061 0009527 258.1441 101.8666 14.18410618483851
NOAA 6 [-]              
1 11416U 79057A   22253.05279351  .00000175  00000+0  79083-4 0  9990
2 11416  98.6650 264.0420 0010600  15.6850 344.4661 14.33793568253859
NOAA 7 [-]              
1 12553U 81059A   22253.15532726  .00000030  00000+0  37447-4 0  9995
2 12553  98.9919 298.5937 0010702 231.7786 128.2426 14.17342369130010
NOAA 8 [-]              
1 13923U 83022A   22252.94987711  .00000084  00000+0  51090-4 0  9992
2 13923  98.6933 243.1876 0014483 326.4111  33.6151 14.28828585 54736
NOAA 9 [-]              
1 15427U 84123A   22253.52345642  .00000052  00000+0  49585-4 0  9993
2 15427  99.0542 227.2768 0013900 286.0443 182.7703 14.16220506948886
NOAA 10 [-]             
1 16969U 86073A   22253.51193177  .00000074  00000+0  46912-4 0  9999
2 16969  98.5754 238.1272 0013338  65.3867  46.5751 14.28218580873239
NOAA 11 [-]             
1 19531U 88089A   22252.82371990  .00000017  00000+0  29942-4 0  9991
2 19531  98.4317 237.2965 0010125 298.9667  61.0492 14.15320678752758
NOAA 12 [-]             
1 21263U 91032A   22252.83203436  .00000038  00000+0  33535-4 0  9994
2 21263  98.5187 250.3033 0014861  92.3339 267.9543 14.26008211628758
NOAA 13 [-]             
1 22739U 93050A   22253.35808884  .00000056  00000+0  52263-4 0  9990
2 22739  98.5131 228.9562 0010672  98.9083 261.3298 14.12859227499283
NOAA 14 [-]             
1 23455U 94089A   22252.81949139  .00000024  00000+0  33903-4 0  9993
2 23455  98.4450 274.9488 0010667  83.1568 277.0820 14.14207431428630
NOAA 15 [B]             
1 25338U 98030A   22253.52210017  .00000108  00000+0  63519-4 0  9999
2 25338  98.6398 281.9261 0011240  54.0157 306.2064 14.26168743265393
NOAA 16 [-]             
1 26536U 00055A   22252.78403348  .00000037  00000+0  42077-4 0  9995
2 26536  98.6289 308.7463 0009399 286.5243  73.4897 14.13341530429263
NOAA 17 [-]             
1 27453U 02032A   22253.10452244  .00000052  00000+0  40953-4 0  9995
2 27453  98.6766 197.3971 0012485  30.5189 329.6715 14.25138630 50920
NOAA 18 [B]             
1 28654U 05018A   22253.47698797  .00000164  00000+0  11231-3 0  9991
2 28654  98.9431 323.8225 0015309  91.9401 268.3524 14.12773463892072
NOAA 19 [+]             
1 33591U 09005A   22253.41703450  .00000124  00000+0  92306-4 0  9993
2 33591  99.1422 289.3147 0013104 312.1617  47.8440 14.12607078700442
SUOMI NPP [+]           
1 37849U 11061A   22253.50060689  .00000028  00000+0  34007-4 0  9995
2 37849  98.7353 190.8849 0001208  80.3434  50.6696 14.19542061563256
NOAA 20 [+]             
1 43013U 17073A   22253.43897968  .00000048  00000+0  43705-4 0  9991
2 43013  98.7192 190.6757 0001240 110.3079 249.8230 14.19542016249288
CELESTIS-02             
1 25160U 98007D   22253.19621846 -.00000036  00000+0  41604-4 0  9997
2 25160 107.9913  77.3965 0063720 323.8336 134.1543 14.21643584275125
